KUIPER-00274            
1 67792U 26030AE  26058.96140935 -.00006274  00000+0 -18863-3 0  9999
2 67792  51.8840 266.3609 0017085  40.9125 319.3138 15.31780089  3590
KUIPER-00275            
1 67793U 26030AF  26058.87754594  .00025330  00000+0  76003-3 0  9994
2 67793  51.8842 266.5577 0008783  26.2502 333.8927 15.34267638  3589
KUIPER-00276            
1 67794U 26030AG  26058.89963151  .00025350  00000+0  82326-3 0  9995
2 67794  51.8830 266.6937 0018214  37.0628 323.1610 15.31624676  3584
KUIPER-00279            
1 67795U 26030AH  26058.93824861  .00020521  00000+0  60627-3 0  9990
2 67795  51.8791 266.2071 0006095  23.4727 336.6536 15.34904808  3597
CREW DRAGON 12          
1 67796U 26031A   26058.89712273  .00011820  00000+0  22726-3 0  9990
2 67796  51.6325 120.7666 0008321 140.4027 219.7571 15.48349372554551
STARLINK-36800          
1 67797U 26032A   26058.91089557 -.00599871  00000+0 -37013-2 0  9990
2 67797  97.2843 244.9085 0002475 345.8213  14.2984 15.78622714  3247
STARLINK-36798          
1 67798U 26032B   26058.46623133  .00172158  00000+0  87620-3 0  9998
2 67798  97.2826 244.4386 0001615 120.7641 239.3786 15.80957788  3175
STARLINK-36804          
1 67799U 26032C   26058.84555572  .00054303  00000+0  30931-3 0  9996
2 67799  97.2861 244.8469 0001439 268.0584  92.0518 15.78807237  3231
STARLINK-36354          
1 67800U 26032D   26058.78077924  .00218609  00000+0  11097-2 0  9994
2 67800  97.2864 244.7806 0001459  95.8462 264.2973 15.80894985  3220
STARLINK-36773          
1 67801U 26032E   26058.40006061  .01115607  00000+0  52310-2 0  9996
2 67801  97.2853 244.3783 0001828  81.5539 278.5937 15.80757560  3164
STARLINK-36739          
1 67802U 26032F   26058.90459230  .00301303  00000+0  15122-2 0  9991
2 67802  97.2826 244.9166 0000266 355.0639   5.0627 15.80928089  3245
STARLINK-36768          
1 67803U 26032G   26058.46238799  .00141391  00000+0  72390-3 0  9998
2 67803  97.2845 244.4446 0002960 113.7319 246.4260 15.80906083  3176
