CCSDS_OMM_VERS = 2.0
CREATION_DATE  = 
ORIGINATOR     = 

OBJECT_NAME    = KUIPER-00274
OBJECT_ID      = 2026-030AE
CENTER_NAME    = EARTH
REF_FRAME      = TEME
TIME_SYSTEM    = UTC
MEAN_ELEMENT_THEORY = SGP/SGP4

EPOCH          = 2026-02-27T23:04:25.767840
MEAN_MOTION    = 15.31780089
ECCENTRICITY   = .00170852
INCLINATION    = 51.8840
RA_OF_ASC_NODE = 266.3609
ARG_OF_PERICENTER = 40.9125
MEAN_ANOMALY   = 319.3138

EPHEMERIS_TYPE = 0
CLASSIFICATION_TYPE = U
NORAD_CAT_ID   = 67792
ELEMENT_SET_NO = 999
REV_AT_EPOCH   = 359
BSTAR          = -.18863017E-3
MEAN_MOTION_DOT = -.6274E-4
MEAN_MOTION_DDOT = 0

CCSDS_OMM_VERS = 2.0
CREATION_DATE  = 
ORIGINATOR     = 

OBJECT_NAME    = KUIPER-00275
OBJECT_ID      = 2026-030AF
CENTER_NAME    = EARTH
REF_FRAME      = TEME
TIME_SYSTEM    = UTC
MEAN_ELEMENT_THEORY = SGP/SGP4

EPOCH          = 2026-02-27T21:03:39.969216
MEAN_MOTION    = 15.34267638
ECCENTRICITY   = .00087833
INCLINATION    = 51.8842
RA_OF_ASC_NODE = 266.5577
ARG_OF_PERICENTER = 26.2502
MEAN_ANOMALY   = 333.8927

EPHEMERIS_TYPE = 0
CLASSIFICATION_TYPE = U
NORAD_CAT_ID   = 67793
ELEMENT_SET_NO = 999
REV_AT_EPOCH   = 358
BSTAR          = .76003455E-3
MEAN_MOTION_DOT = .2533E-3
MEAN_MOTION_DDOT = 0

CCSDS_OMM_VERS = 2.0
CREATION_DATE  = 
ORIGINATOR     = 

OBJECT_NAME    = KUIPER-00276
OBJECT_ID      = 2026-030AG
CENTER_NAME    = EARTH
REF_FRAME      = TEME
TIME_SYSTEM    = UTC
MEAN_ELEMENT_THEORY = SGP/SGP4

EPOCH          = 2026-02-27T21:35:28.162464
MEAN_MOTION    = 15.31624676
ECCENTRICITY   = .00182145
INCLINATION    = 51.8830
RA_OF_ASC_NODE = 266.6937
ARG_OF_PERICENTER = 37.0628
MEAN_ANOMALY   = 323.1610

EPHEMERIS_TYPE = 0
CLASSIFICATION_TYPE = U
NORAD_CAT_ID   = 67794
ELEMENT_SET_NO = 999
REV_AT_EPOCH   = 358
BSTAR          = .82325681E-3
MEAN_MOTION_DOT = .2535E-3
MEAN_MOTION_DDOT = 0

CCSDS_OMM_VERS = 2.0
CREATION_DATE  = 
ORIGINATOR     = 

OBJECT_NAME    = KUIPER-00279
OBJECT_ID      = 2026-030AH
CENTER_NAME    = EARTH
REF_FRAME      = TEME
TIME_SYSTEM    = UTC
MEAN_ELEMENT_THEORY = SGP/SGP4

EPOCH          = 2026-02-27T22:31:04.679904
MEAN_MOTION    = 15.34904808
ECCENTRICITY   = .00060958
INCLINATION    = 51.8791
RA_OF_ASC_NODE = 266.2071
ARG_OF_PERICENTER = 23.4727
MEAN_ANOMALY   = 336.6536

EPHEMERIS_TYPE = 0
CLASSIFICATION_TYPE = U
NORAD_CAT_ID   = 67795
ELEMENT_SET_NO = 999
REV_AT_EPOCH   = 359
BSTAR          = .60626995E-3
MEAN_MOTION_DOT = .20521E-3
MEAN_MOTION_DDOT = 0

CCSDS_OMM_VERS = 2.0
CREATION_DATE  = 
ORIGINATOR     = 

OBJECT_NAME    = CREW DRAGON 12
OBJECT_ID      = 2026-031A
CENTER_NAME    = EARTH
REF_FRAME      = TEME
TIME_SYSTEM    = UTC
MEAN_ELEMENT_THEORY = SGP/SGP4

EPOCH          = 2026-02-27T21:31:51.403872
MEAN_MOTION    = 15.48349372
ECCENTRICITY   = .00083217
INCLINATION    = 51.6325
RA_OF_ASC_NODE = 120.7666
ARG_OF_PERICENTER = 140.4027
MEAN_ANOMALY   = 219.7571

EPHEMERIS_TYPE = 0
CLASSIFICATION_TYPE = U
NORAD_CAT_ID   = 67796
ELEMENT_SET_NO = 999
REV_AT_EPOCH   = 55455
BSTAR          = .2272581E-3
MEAN_MOTION_DOT = .1182E-3
MEAN_MOTION_DDOT = 0

CCSDS_OMM_VERS = 2.0
CREATION_DATE  = 
ORIGINATOR     = 

OBJECT_NAME    = STARLINK-36800
OBJECT_ID      = 2026-032A
CENTER_NAME    = EARTH
REF_FRAME      = TEME
TIME_SYSTEM    = UTC
MEAN_ELEMENT_THEORY = SGP/SGP4

EPOCH          = 2026-02-27T21:51:41.377248
MEAN_MOTION    = 15.78622714
ECCENTRICITY   = .00024757
INCLINATION    = 97.2843
RA_OF_ASC_NODE = 244.9085
ARG_OF_PERICENTER = 345.8213
MEAN_ANOMALY   = 14.2984

EPHEMERIS_TYPE = 0
CLASSIFICATION_TYPE = U
NORAD_CAT_ID   = 67797
ELEMENT_SET_NO = 999
REV_AT_EPOCH   = 324
BSTAR          = -.37013073E-2
MEAN_MOTION_DOT = -.599871E-2
MEAN_MOTION_DDOT = 0

CCSDS_OMM_VERS = 2.0
CREATION_DATE  = 
ORIGINATOR     = 

OBJECT_NAME    = STARLINK-36798
OBJECT_ID      = 2026-032B
CENTER_NAME    = EARTH
REF_FRAME      = TEME
TIME_SYSTEM    = UTC
MEAN_ELEMENT_THEORY = SGP/SGP4

EPOCH          = 2026-02-27T11:11:22.386912
MEAN_MOTION    = 15.80957788
ECCENTRICITY   = .00016155
INCLINATION    = 97.2826
RA_OF_ASC_NODE = 244.4386
ARG_OF_PERICENTER = 120.7641
MEAN_ANOMALY   = 239.3786

EPHEMERIS_TYPE = 0
CLASSIFICATION_TYPE = U
NORAD_CAT_ID   = 67798
ELEMENT_SET_NO = 999
REV_AT_EPOCH   = 317
BSTAR          = .87620471E-3
MEAN_MOTION_DOT = .172158E-2
MEAN_MOTION_DDOT = 0

CCSDS_OMM_VERS = 2.0
CREATION_DATE  = 
ORIGINATOR     = 

OBJECT_NAME    = STARLINK-36804
OBJECT_ID      = 2026-032C
CENTER_NAME    = EARTH
REF_FRAME      = TEME
TIME_SYSTEM    = UTC
MEAN_ELEMENT_THEORY = SGP/SGP4

EPOCH          = 2026-02-27T20:17:36.014208
MEAN_MOTION    = 15.78807237
ECCENTRICITY   = .00014397
INCLINATION    = 97.2861
RA_OF_ASC_NODE = 244.8469
ARG_OF_PERICENTER = 268.0584
MEAN_ANOMALY   = 92.0518

EPHEMERIS_TYPE = 0
CLASSIFICATION_TYPE = U
NORAD_CAT_ID   = 67799
ELEMENT_SET_NO = 999
REV_AT_EPOCH   = 323
BSTAR          = .3093057E-3
MEAN_MOTION_DOT = .54303E-3
MEAN_MOTION_DDOT = 0

CCSDS_OMM_VERS = 2.0
CREATION_DATE  = 
ORIGINATOR     = 

OBJECT_NAME    = STARLINK-36354
OBJECT_ID      = 2026-032D
CENTER_NAME    = EARTH
REF_FRAME      = TEME
TIME_SYSTEM    = UTC
MEAN_ELEMENT_THEORY = SGP/SGP4

EPOCH          = 2026-02-27T18:44:19.326336
MEAN_MOTION    = 15.80894985
ECCENTRICITY   = .00014595
INCLINATION    = 97.2864
RA_OF_ASC_NODE = 244.7806
ARG_OF_PERICENTER = 95.8462
MEAN_ANOMALY   = 264.2973

EPHEMERIS_TYPE = 0
CLASSIFICATION_TYPE = U
NORAD_CAT_ID   = 67800
ELEMENT_SET_NO = 999
REV_AT_EPOCH   = 322
BSTAR          = .11096572E-2
MEAN_MOTION_DOT = .218609E-2
MEAN_MOTION_DDOT = 0

CCSDS_OMM_VERS = 2.0
CREATION_DATE  = 
ORIGINATOR     = 

OBJECT_NAME    = STARLINK-36773
OBJECT_ID      = 2026-032E
CENTER_NAME    = EARTH
REF_FRAME      = TEME
TIME_SYSTEM    = UTC
MEAN_ELEMENT_THEORY = SGP/SGP4

EPOCH          = 2026-02-27T09:36:05.236704
MEAN_MOTION    = 15.80757560
ECCENTRICITY   = .00018289
INCLINATION    = 97.2853
RA_OF_ASC_NODE = 244.3783
ARG_OF_PERICENTER = 81.5539
MEAN_ANOMALY   = 278.5937

EPHEMERIS_TYPE = 0
CLASSIFICATION_TYPE = U
NORAD_CAT_ID   = 67801
ELEMENT_SET_NO = 999
REV_AT_EPOCH   = 316
BSTAR          = .52310132E-2
MEAN_MOTION_DOT = .1115607E-1
MEAN_MOTION_DDOT = 0

CCSDS_OMM_VERS = 2.0
CREATION_DATE  = 
ORIGINATOR     = 

OBJECT_NAME    = STARLINK-36739
OBJECT_ID      = 2026-032F
CENTER_NAME    = EARTH
REF_FRAME      = TEME
TIME_SYSTEM    = UTC
MEAN_ELEMENT_THEORY = SGP/SGP4

EPOCH          = 2026-02-27T21:42:36.774720
MEAN_MOTION    = 15.80928089
ECCENTRICITY   = .00002666
INCLINATION    = 97.2826
RA_OF_ASC_NODE = 244.9166
ARG_OF_PERICENTER = 355.0639
MEAN_ANOMALY   = 5.0627

EPHEMERIS_TYPE = 0
CLASSIFICATION_TYPE = U
NORAD_CAT_ID   = 67802
ELEMENT_SET_NO = 999
REV_AT_EPOCH   = 324
BSTAR          = .15121997E-2
MEAN_MOTION_DOT = .301303E-2
MEAN_MOTION_DDOT = 0

CCSDS_OMM_VERS = 2.0
CREATION_DATE  = 
ORIGINATOR     = 

OBJECT_NAME    = STARLINK-36768
OBJECT_ID      = 2026-032G
CENTER_NAME    = EARTH
REF_FRAME      = TEME
TIME_SYSTEM    = UTC
MEAN_ELEMENT_THEORY = SGP/SGP4

EPOCH          = 2026-02-27T11:05:50.322336
MEAN_MOTION    = 15.80906083
ECCENTRICITY   = .00029606
INCLINATION    = 97.2845
RA_OF_ASC_NODE = 244.4446
ARG_OF_PERICENTER = 113.7319
MEAN_ANOMALY   = 246.4260

EPHEMERIS_TYPE = 0
CLASSIFICATION_TYPE = U
NORAD_CAT_ID   = 67803
ELEMENT_SET_NO = 999
REV_AT_EPOCH   = 317
BSTAR          = .72389712E-3
MEAN_MOTION_DOT = .141391E-2
MEAN_MOTION_DDOT = 0

